{ "type": "Feature", "properties": { "amenity": "bank", "name": "Bank Of The west", "id": "node\/2760019455" }, "geometry": { "type": "Point", "coordinates": [ -122.0148384, 37.3373448 ] } }
{ "type": "Feature", "properties": { "amenity": "restaurant", "name": "T.G.I. Friday's", "Source": "survey", "addr:postcode": "95014", "id": "node\/2192755455", "addr:housenumber": "10343", "addr:street": "North Wolfe Road", "cuisine": "american" }, "geometry": { "type": "Point", "coordinates": [ -122.0149594, 37.3279862 ] } }
{ "type": "Feature", "properties": { "name": "at&t", "id": "node\/2622899126", "shop": "mobile_phone" }, "geometry": { "type": "Point", "coordinates": [ -122.0300636, 37.3235771 ] } }
{ "type": "Feature", "properties": { "amenity": "restaurant", "addr:city": "San Jose", "name": "Lee's Sandwiches", "addr:postcode": "95014", "id": "node\/2476247343", "addr:housenumber": "20363", "addr:street": "Stevens Creek Boulevard", "cuisine": "Vietnamese" }, "geometry": { "type": "Point", "coordinates": [ -122.0297882, 37.3235601 ] } }
{ "type": "Feature", "properties": { "amenity": "fast_food", "name": "Noah's Bagels", "addr:postcode": "95014", "id": "node\/1974357969", "addr:housenumber": "20520B", "addr:street": "Stevens Creek Boulevard" }, "geometry": { "type": "Point", "coordinates": [ -122.0328708, 37.3219859 ] } }
{ "type": "Feature", "properties": { "name": "Cupertino Crossroads Shopping Center", "Tiger:MTFCC": "C3081", "Source": "Tiger2009", "ANSICODE": "01828755", "COUNTYFP": "085", "place": "locality", "id": "node\/548055346", "STATEFP": "06" }, "geometry": { "type": "Point", "coordinates": [ -122.035328, 37.3219153 ] } }
{ "type": "Feature", "properties": { "amenity": "cafe", "name": "Coffee Society", "id": "node\/2621484199" }, "geometry": { "type": "Point", "coordinates": [ -122.0473457, 37.3232296 ] } }
{ "type": "Feature", "properties": { "name": "Monta Vista", "gnis:ST_num": "06", "ele": "101", "import_uuid": "bb7269ee-502a-5391-8056-e3ce0e66489c", "gnis:Class": "Populated Place", "place": "hamlet", "gnis:County": "Santa Clara", "gnis:id": "1656173", "id": "node\/150971636", "gnis:ST_alpha": "CA", "gnis:County_num": "085", "is_in": "Santa Clara,California,Calif.,CA,USA" }, "geometry": { "type": "Point", "coordinates": [ -122.0580165, 37.3227199 ] } }
{ "type": "Feature", "properties": { "gnis:state_id": "06", "name": "Somerset Square Park", "gnis:county_id": "085", "leisure": "park", "ele": "92", "gnis:created": "04\/09\/1999", "gnis:feature_id": "1828737", "id": "node\/358838488" }, "geometry": { "type": "Point", "coordinates": [ -122.05885, 37.3316086 ] } }
{ "type": "Feature", "properties": { "amenity": "fast_food", "name": "subway", "Source": "survey", "id": "node\/1305223599", "addr:housenumber": "22352", "addr:street": "Homestead Road", "cuisine": "sandwich" }, "geometry": { "type": "Point", "coordinates": [ -122.0662165, 37.337165 ] } }
{ "type": "Feature", "properties": { "name": "Trader Joe's", "id": "node\/2204100722", "shop": "supermarket" }, "geometry": { "type": "Point", "coordinates": [ -122.0675117, 37.3371572 ] } }
{ "type": "Feature", "properties": { "name": "Village Green Apartments", "website": "http:\/\/www.villagegreenapartments.net", "id": "node\/2781869078", "addr:housenumber": "21230", "phone": "+1 408 738 2500", "addr:street": "West Homestead Road" }, "geometry": { "type": "Point", "coordinates": [ -122.0455378, 37.3373064 ] } }
{ "type": "Feature", "properties": { "amenity": "fast_food", "name": "Taco Bell", "id": "node\/1674111313", "cuisine": "mexican" }, "geometry": { "type": "Point", "coordinates": [ -122.041884, 37.3378927 ] } }
{ "type": "Feature", "properties": { "name": "Barber shoppe", "id": "node\/466092078", "shop": "hairdresser" }, "geometry": { "type": "Point", "coordinates": [ -122.03144, 37.35271 ] } }
{ "type": "Feature", "properties": { "name": "O'Reilly Auto Parts", "id": "node\/1679064377", "shop": "car_parts" }, "geometry": { "type": "Point", "coordinates": [ -122.0167058, 37.3554876 ] } }
{ "type": "Feature", "properties": { "name": "Audio Video Specialist", "Source": "photograph", "id": "node\/2663431562", "addr:housenumber": "926", "shop": "video", "addr:street": "East Fremont Avenue" }, "geometry": { "type": "Point", "coordinates": [ -122.0127444, 37.3519977 ] } }
{ "type": "Feature", "properties": { "amenity": "fuel", "name": "76", "id": "node\/2760019874" }, "geometry": { "type": "Point", "coordinates": [ -122.013589, 37.3532523 ] } }
{ "type": "Feature", "properties": { "name": "Kumud Groceries", "id": "node\/266630161", "shop": "supermarket" }, "geometry": { "type": "Point", "coordinates": [ -122.0041823, 37.3529854 ] } }
{ "type": "Feature", "properties": { "name": "Pros. Cut", "id": "node\/2882781051", "shop": "hairdresser" }, "geometry": { "type": "Point", "coordinates": [ -122.0053369, 37.3528225 ] } }
{ "type": "Feature", "properties": { "name": "Khoobsurat", "Source": "photograph", "id": "node\/2663431746", "addr:housenumber": "1024", "shop": "clothes", "addr:street": "East El Camino Real", "addr:unit": "2" }, "geometry": { "type": "Point", "coordinates": [ -122.0062591, 37.3514105 ] } }
{ "type": "Feature", "properties": { "amenity": "dentist", "name": "Alpha Dental Care", "Source": "photograph", "id": "node\/2663431526", "addr:housenumber": "1024", "phone": "4087367000", "addr:street": "East El Camino Real", "addr:unit": "1" }, "geometry": { "type": "Point", "coordinates": [ -122.006356, 37.3514105 ] } }
{ "type": "Feature", "properties": { "name": "Silicon Valley Auto Rental", "Source": "photograph", "id": "node\/2663431856", "shop": "car_rental", "addr:housename": "998" }, "geometry": { "type": "Point", "coordinates": [ -122.0082878, 37.3517236 ] } }
{ "type": "Feature", "properties": { "name": "Domain Hotel", "id": "node\/309330897", "tourism": "hotel" }, "geometry": { "type": "Point", "coordinates": [ -122.002028, 37.3527876 ] } }
{ "type": "Feature", "properties": { "amenity": "fuel", "name": "Costco Gas Station", "fuel:octane_87": "yes", "operator": "Costco", "fuel:octane_91": "yes", "id": "node\/515626307" }, "geometry": { "type": "Point", "coordinates": [ -121.9954547, 37.3711182 ] } }
{ "type": "Feature", "properties": { "name": "Sunny Salon", "Source": "photograph", "id": "node\/2625552996", "shop": "clothes" }, "geometry": { "type": "Point", "coordinates": [ -122.0297483, 37.3759674 ] } }
{ "type": "Feature", "properties": { "amenity": "cafe", "name": "The Bean Scene Cafe", "id": "node\/439200967", "addr:housenumber": "186", "addr:street": "South Murphy Avenue" }, "geometry": { "type": "Point", "coordinates": [ -122.0300819, 37.376337 ] } }
{ "type": "Feature", "properties": { "amenity": "restaurant", "name": "House of Kabobs", "id": "node\/1595294678", "addr:street": "South Murphy Avenue", "cuisine": "Persian" }, "geometry": { "type": "Point", "coordinates": [ -122.0297621, 37.3764767 ] } }
{ "type": "Feature", "properties": { "amenity": "restaurant", "name": "Taverna Bistro", "id": "node\/2235551641", "addr:housenumber": "133", "addr:street": "South Murphy Avenue", "cuisine": "greek" }, "geometry": { "type": "Point", "coordinates": [ -122.0301695, 37.3771394 ] } }
{ "type": "Feature", "properties": { "amenity": "restaurant", "addr:city": "Sunnyvale", "wheelchair": "yes", "outdoor_seating": "no", "name": "Tarragon Restaurant", "takeaway": "no", "smoking": "no", "id": "node\/2703532209", "addr:housenumber": "140", "addr:street": "South Murphy Avenue", "cuisine": "american" }, "geometry": { "type": "Point", "coordinates": [ -122.02983, 37.376947 ] } }
{ "type": "Feature", "properties": { "name": "DJ Automotive", "Source": "photograph", "id": "node\/2663431592", "shop": "car_repair" }, "geometry": { "type": "Point", "coordinates": [ -122.014535, 37.3761692 ] } }
{ "type": "Feature", "properties": { "name": "B2 Perfection Auto Body", "website": "http:\/\/www.b2perfection.com\/", "id": "node\/1685188744", "addr:housenumber": "150", "shop": "car_repair", "addr:street": "North Wolfe Road" }, "geometry": { "type": "Point", "coordinates": [ -122.0133724, 37.3759313 ] } }
{ "type": "Feature", "properties": { "amenity": "cafe", "name": "Coffee-n-More", "wifi": "free", "id": "node\/566055916", "opening_hours": "Mo-Sa 07:00-18:00" }, "geometry": { "type": "Point", "coordinates": [ -122.0297472, 37.3773669 ] } }
{ "type": "Feature", "properties": { "amenity": "school", "gnis:state_id": "06", "name": "The Kings Academy", "Tiger:MTFCC": "K2543", "gnis:county_id": "085", "ele": "13", "Source": "Tiger2009", "COUNTYFP": "085", "gnis:created": "04\/09\/1999", "gnis:feature_id": "1828520", "id": "node\/358838243", "STATEFP": "06" }, "geometry": { "type": "Point", "coordinates": [ -122.013571, 37.3874409 ] } }
{ "type": "Feature", "properties": { "amenity": "doctors", "addr:city": "Sunnyvale", "health_specialty": "acupuncture", "name": "Philip Lei Yang", "Source": "photograph", "id": "node\/2663431799", "addr:housenumber": "441", "addr:street": "De Guigne Drive" }, "geometry": { "type": "Point", "coordinates": [ -122.0077035, 37.3833986 ] } }
{ "type": "Feature", "properties": { "name": "City of Sunnyvale Corporate Yard", "id": "node\/1845616783", "addr:housenumber": "221" }, "geometry": { "type": "Point", "coordinates": [ -122.0086022, 37.3785405 ] } }
{ "type": "Feature", "properties": { "name": "Applied Materials", "id": "node\/1870746480", "addr:housenumber": "974-90" }, "geometry": { "type": "Point", "coordinates": [ -122.0031149, 37.3802809 ] } }
{ "type": "Feature", "properties": { "amenity": "bus_stop", "name": "999 East Arques", "id": "node\/2268657701" }, "geometry": { "type": "Point", "coordinates": [ -122.0054163, 37.380934 ] } }
{ "type": "Feature", "properties": { "name": "HSC Electronic Supply (Halted)", "id": "node\/983586195", "shop": "doityourself", "opening_hours": "Mo-Fr 08:00-19:00;Sa 09:00-17:00" }, "geometry": { "type": "Point", "coordinates": [ -121.993442, 37.3773263 ] } }
{ "type": "Feature", "properties": { "name": "Beads After Beads", "Source": "photograph", "id": "node\/2686109533", "addr:housenumber": "1208", "shop": "yes", "addr:unit": "107" }, "geometry": { "type": "Point", "coordinates": [ -121.9950415, 37.3796256 ] } }
{ "type": "Feature", "properties": { "amenity": "doctors", "name": "Qianfang Acupuncture & Beautycare", "Source": "photograph", "id": "node\/2686109545", "addr:housenumber": "1208", "health_speciality": "acupuncture", "addr:unit": "108" }, "geometry": { "type": "Point", "coordinates": [ -121.9950398, 37.3795248 ] } }
{ "type": "Feature", "properties": { "amenity": "dentist", "name": "Toothspa", "Source": "photograph", "id": "node\/2686109549", "addr:housenumber": "1210", "addr:unit": "212" }, "geometry": { "type": "Point", "coordinates": [ -121.9945047, 37.3795124 ] } }
{ "type": "Feature", "properties": { "name": "Massage", "id": "node\/2607395548", "addr:housenumber": "500", "shop": "massage", "phone": "4087337733", "addr:street": "Lawrence Expressway", "addr:unit": "E" }, "geometry": { "type": "Point", "coordinates": [ -121.9952394, 37.3817784 ] } }
{ "type": "Feature", "properties": { "amenity": "restaurant", "name": "Chaats and Curry", "website": "http:\/\/www.chaatsandcurrys.com\/chaatsandcurrys.html", "id": "node\/2607395534", "addr:housenumber": "520", "phone": "4087469192", "addr:street": "Lawrence Expressway", "addr:unit": "310" }, "geometry": { "type": "Point", "coordinates": [ -121.9952679, 37.3832729 ] } }
{ "type": "Feature", "properties": { "name": "Residence Inn", "id": "node\/1857344049", "addr:housenumber": "1080", "tourism": "hotel" }, "geometry": { "type": "Point", "coordinates": [ -121.9969517, 37.3855989 ] } }
{ "type": "Feature", "properties": { "name": "lft", "id": "node\/1866573016", "addr:housenumber": "928", "addr:street": "Almaden Avenue" }, "geometry": { "type": "Point", "coordinates": [ -122.00344, 37.3917817 ] } }
{ "type": "Feature", "properties": { "amenity": "restaurant", "name": "Hong Kong Saigon Seafood Harbor", "id": "node\/1847619969", "addr:housenumber": "1135", "addr:street": "Lawrence Expressway", "cuisine": "chinese" }, "geometry": { "type": "Point", "coordinates": [ -121.9969379, 37.3974371 ] } }
{ "type": "Feature", "properties": { "amenity": "dentist", "name": "Lakewood Dental Care", "id": "node\/2604149619", "addr:housenumber": "1153", "phone": "4085411900", "addr:street": "Lawrence Expressway" }, "geometry": { "type": "Point", "coordinates": [ -121.9969354, 37.3977738 ] } }
{ "type": "Feature", "properties": { "name": "Instyle Salon", "id": "node\/2604149615", "addr:housenumber": "1155", "shop": "beauty", "phone": "4087342035", "addr:street": "Lawrence Expressway" }, "geometry": { "type": "Point", "coordinates": [ -121.9969387, 37.3978463 ] } }
{ "type": "Feature", "properties": { "name": "The Hair Shack", "id": "node\/2614202334", "addr:housenumber": "615", "shop": "hairdresser" }, "geometry": { "type": "Point", "coordinates": [ -122.0134242, 37.3913742 ] } }
{ "type": "Feature", "properties": { "name": "Park West", "Source": "photograph", "id": "node\/1865202093", "addr:housenumber": "603", "addr:street": "San Juan Drive" }, "geometry": { "type": "Point", "coordinates": [ -122.0120309, 37.3884421 ] } }
{ "type": "Feature", "properties": { "amenity": "fuel", "addr:city": "Sunnyvale", "name": "Valero", "operator": "Valero", "id": "node\/448768907", "addr:housenumber": "498", "addr:street": "North Mathilda Avenue" }, "geometry": { "type": "Point", "coordinates": [ -122.030134, 37.3891371 ] } }
{ "type": "Feature", "properties": { "name": "Libby's water tower", "id": "node\/2296146269", "landmark": "water_tower" }, "geometry": { "type": "Point", "coordinates": [ -122.0349803, 37.3811022 ] } }
{ "type": "Feature", "properties": { "addr:city": "Sunnyvale", "name": "Mac's Coins & Collectables", "addr:postcode": "94086", "id": "node\/2232337788", "addr:housenumber": "380", "payment:bitcoin": "yes", "addr:state": "CA", "addr:country": "US", "addr:street": "Altair Way" }, "geometry": { "type": "Point", "coordinates": [ -122.0328367, 37.3780322 ] } }
{ "type": "Feature", "properties": { "name": "Sunnyvale", "id": "node\/647651427", "railway": "station" }, "geometry": { "type": "Point", "coordinates": [ -122.0309231, 37.3784659 ] } }
{ "type": "Feature", "properties": { "name": "Redwood Square", "id": "node\/601263967", "tourism": "attraction" }, "geometry": { "type": "Point", "coordinates": [ -122.0318053, 37.3748766 ] } }
{ "type": "Feature", "properties": { "name": "Hallmark", "id": "node\/314150919", "shop": "convenience" }, "geometry": { "type": "Point", "coordinates": [ -122.0883741, 37.3730003 ] } }
{ "type": "Feature", "properties": { "amenity": "bar", "name": "Bert's Alibi", "addr:postcode": "94040", "id": "node\/1975950250", "addr:housenumber": "1313B", "addr:street": "West El Camino Real" }, "geometry": { "type": "Point", "coordinates": [ -122.0896506, 37.3881731 ] } }
{ "type": "Feature", "properties": { "amenity": "restaurant", "diet:vegan": "only", "name": "Garden Fresh", "id": "node\/1576214409" }, "geometry": { "type": "Point", "coordinates": [ -122.0889895, 37.3878569 ] } }
{ "type": "Feature", "properties": { "name": "Blossom True Value Hardware", "website": "http:\/\/www.truevalue.com", "id": "node\/1576214410", "shop": "hardware", "phone": "+1 (650) 964-7871" }, "geometry": { "type": "Point", "coordinates": [ -122.0890939, 37.3880689 ] } }
{ "type": "Feature", "properties": { "name": "VTA", "id": "node\/2161940025", "highway": "bus_stop" }, "geometry": { "type": "Point", "coordinates": [ -122.0844707, 37.3862197 ] } }
{ "type": "Feature", "properties": { "amenity": "school", "gnis:state_id": "06", "name": "Isaac Newton Graham Middle School", "gnis:county_id": "085", "ele": "36", "gnis:created": "06\/14\/2000", "gnis:feature_id": "224382", "id": "node\/358766722" }, "geometry": { "type": "Point", "coordinates": [ -122.0848257, 37.3818032 ] } }
{ "type": "Feature", "properties": { "gnis:state_id": "06", "name": "Crittenden School Park", "gnis:county_id": "085", "leisure": "park", "ele": "10", "gnis:created": "04\/09\/1999", "gnis:feature_id": "1828442", "id": "node\/358838149" }, "geometry": { "type": "Point", "coordinates": [ -122.0852402, 37.4104956 ] } }
{ "type": "Feature", "properties": { "amenity": "bicycle_rental", "capacity": "15", "network": "Bay Area Bike Share", "name": "Rengstorff Avenue \/ California Street", "operator": "Bay Area Bike Share", "id": "node\/2626075060" }, "geometry": { "type": "Point", "coordinates": [ -122.0988852, 37.4005134 ] } }
{ "type": "Feature", "properties": { "amenity": "dentist", "name": "Olive Tree Dental", "id": "node\/1440032353", "addr:housenumber": "2290", "phone": "6509388870", "addr:unit": "3" }, "geometry": { "type": "Point", "coordinates": [ -122.1046182, 37.3975919 ] } }
{ "type": "Feature", "properties": { "amenity": "restaurant", "name": "Napoletana Pizzeria", "id": "node\/1322647963", "cuisine": "pizza" }, "geometry": { "type": "Point", "coordinates": [ -122.0968246, 37.3941375 ] } }
{ "type": "Feature", "properties": { "name": "Super 8 ", "id": "node\/1975942604", "tourism": "hotel" }, "geometry": { "type": "Point", "coordinates": [ -122.0933314, 37.3900815 ] } }
{ "type": "Feature", "properties": { "amenity": "dentist", "name": "Dentistry", "addr:postcode": "94040", "id": "node\/2604121120", "addr:housenumber": "1039E", "addr:street": "El Monte Avenue" }, "geometry": { "type": "Point", "coordinates": [ -122.0943429, 37.3905059 ] } }
{ "type": "Feature", "properties": { "name": "Swetka's Tennis Shop", "addr:postcode": "94040", "website": "http:\/\/www.swetkas.com\/", "id": "node\/2604121128", "addr:housenumber": "1039J", "shop": "sports", "phone": "6509688952", "addr:street": "El Monte Avenue" }, "geometry": { "type": "Point", "coordinates": [ -122.0943841, 37.3903433 ] } }
{ "type": "Feature", "properties": { "name": "O'Reilly Auto Parts", "id": "node\/1313566128", "shop": "car_repair" }, "geometry": { "type": "Point", "coordinates": [ -122.0970365, 37.392958 ] } }
{ "type": "Feature", "properties": { "name": "Leslie's swimming pool supplies", "id": "node\/1313527447", "shop": "yes" }, "geometry": { "type": "Point", "coordinates": [ -122.0981629, 37.3934513 ] } }
{ "type": "Feature", "properties": { "amenity": "school", "gnis:state_id": "06", "name": "Ardis G Egan Intermediate School", "gnis:county_id": "085", "ele": "31", "gnis:created": "06\/14\/2000", "gnis:feature_id": "232373", "id": "node\/358774514" }, "geometry": { "type": "Point", "coordinates": [ -122.1180187, 37.3960513 ] } }
{ "type": "Feature", "properties": { "name": "A-1 Fixit", "id": "node\/2619982646", "addr:housenumber": "907", "shop": "vacuum_cleaner", "phone": "6509481111" }, "geometry": { "type": "Point", "coordinates": [ -122.1140282, 37.3991447 ] } }
{ "type": "Feature", "properties": { "amenity": "school", "gnis:state_id": "06", "name": "Portola School", "gnis:county_id": "085", "ele": "31", "gnis:created": "01\/19\/1981", "gnis:feature_id": "230961", "id": "node\/358772998" }, "geometry": { "type": "Point", "coordinates": [ -122.1102408, 37.3943847 ] } }
{ "type": "Feature", "properties": { "amenity": "restaurant", "name": "Hunan Home's", "id": "node\/345503486", "cuisine": "chinese" }, "geometry": { "type": "Point", "coordinates": [ -122.1090837, 37.3984726 ] } }
{ "type": "Feature", "properties": { "amenity": "cafe", "name": "Pearl Coffee and Tea", "id": "node\/1834844699" }, "geometry": { "type": "Point", "coordinates": [ -122.1066508, 37.4029346 ] } }
{ "type": "Feature", "properties": { "name": "San Antonio", "id": "node\/30236493", "railway": "station" }, "geometry": { "type": "Point", "coordinates": [ -122.1072412, 37.4074107 ] } }
{ "type": "Feature", "properties": { "name": "Alta Mesa", "gnis:ST_num": "06", "ele": "32", "import_uuid": "bb7269ee-502a-5391-8056-e3ce0e66489c", "gnis:Class": "Populated Place", "place": "hamlet", "gnis:County": "Santa Clara", "gnis:id": "1657921", "id": "node\/150949690", "gnis:ST_alpha": "CA", "gnis:County_num": "085", "is_in": "Santa Clara,California,Calif.,CA,USA" }, "geometry": { "type": "Point", "coordinates": [ -122.1346859, 37.398829 ] } }
{ "type": "Feature", "properties": { "amenity": "school", "gnis:state_id": "06", "name": "Pinewood High School", "gnis:county_id": "085", "ele": "58", "gnis:created": "06\/14\/2000", "gnis:feature_id": "223871", "id": "node\/358766211", "gnis:edited": "05\/25\/2007" }, "geometry": { "type": "Point", "coordinates": [ -122.1419083, 37.3879959 ] } }
{ "type": "Feature", "properties": { "amenity": "school", "gnis:state_id": "06", "name": "Los Altos High School", "gnis:county_id": "085", "ele": "42", "gnis:created": "04\/09\/1999", "gnis:feature_id": "1828451", "id": "node\/358838158", "gnis:edited": "05\/25\/2007" }, "geometry": { "type": "Point", "coordinates": [ -122.1082962, 37.3863294 ] } }
{ "type": "Feature", "properties": { "amenity": "fire_station", "name": "Sequoia Fire Station", "ele": "49", "Source": "USGS Geonames", "gnis:reviewed": "no", "gnis:import_uuid": "57871b70-0100-4405-bb30-88b2e001a944", "gnis:feature_id": "1828569", "id": "node\/368167879", "gnis:county_name": "Santa Clara", "addr:state": "CA" }, "geometry": { "type": "Point", "coordinates": [ -122.1136729, 37.3847086 ] } }
{ "type": "Feature", "properties": { "name": "Jolie Madame", "website": "http:\/\/joliemadamenailspa.com\/", "id": "node\/2619982664", "addr:housenumber": "385", "shop": "beauty" }, "geometry": { "type": "Point", "coordinates": [ -122.1181401, 37.378661 ] } }
{ "type": "Feature", "properties": { "amenity": "physical_therapy", "name": "Westcott", "Source": "photograph", "website": "http:\/\/www.westcottpt.com\/", "id": "node\/2641042497", "addr:housenumber": "240" }, "geometry": { "type": "Point", "coordinates": [ -122.1165854, 37.3780031 ] } }
{ "type": "Feature", "properties": { "name": "Olivia", "Source": "photograph", "id": "node\/2637444335", "addr:housenumber": "266", "shop": "clothes" }, "geometry": { "type": "Point", "coordinates": [ -122.116434, 37.3786214 ] } }
{ "type": "Feature", "properties": { "amenity": "restaurant", "name": "Fiesta Vallarta", "website": "http:\/\/fiestavallarta.com\/", "id": "node\/453951600", "addr:housenumber": "301", "phone": "6505595871", "cuisine": "mexican" }, "geometry": { "type": "Point", "coordinates": [ -122.1174047, 37.3790029 ] } }
{ "type": "Feature", "properties": { "name": "The Botanist", "Source": "photograph", "website": "http:\/\/botanistlosaltos.com\/", "id": "node\/2637248147", "addr:housenumber": "363", "shop": "florist", "phone": "6503835464" }, "geometry": { "type": "Point", "coordinates": [ -122.1178483, 37.3788113 ] } }
{ "type": "Feature", "properties": { "name": "Gitane", "Source": "photograph", "id": "node\/2637088594", "addr:housenumber": "334", "shop": "gift", "addr:unit": "101" }, "geometry": { "type": "Point", "coordinates": [ -122.1178586, 37.3790648 ] } }
{ "type": "Feature", "properties": { "name": "Minn's Tailoring", "Source": "photograph", "id": "node\/2637088622", "addr:housenumber": "334", "shop": "tailor", "addr:unit": "103" }, "geometry": { "type": "Point", "coordinates": [ -122.1177933, 37.3790969 ] } }
{ "type": "Feature", "properties": { "name": "Studio 220", "Source": "photograph", "id": "node\/2637122699", "addr:housenumber": "220", "shop": "hairdresser", "addr:floor": "1" }, "geometry": { "type": "Point", "coordinates": [ -122.116635, 37.3796696 ] } }
{ "type": "Feature", "properties": { "name": "Oz Boutique", "Source": "photograph", "id": "node\/2642087079", "addr:housenumber": "203", "shop": "clothes", "phone": "6509411414" }, "geometry": { "type": "Point", "coordinates": [ -122.115719, 37.3786702 ] } }
{ "type": "Feature", "properties": { "name": "Ground Works", "Source": "photograph", "id": "node\/2642087071", "shop": "gift" }, "geometry": { "type": "Point", "coordinates": [ -122.1154655, 37.3786828 ] } }
{ "type": "Feature", "properties": { "amenity": "restaurant", "name": "Mikado", "id": "node\/2619982675", "addr:housenumber": "161", "phone": "6509178388", "cuisine": "japanese" }, "geometry": { "type": "Point", "coordinates": [ -122.1148782, 37.3792917 ] } }
{ "type": "Feature", "properties": { "amenity": "post_office", "name": "The UPS Store", "Source": "photograph", "id": "node\/2619982745", "addr:housenumber": "171" }, "geometry": { "type": "Point", "coordinates": [ -122.1150731, 37.3790453 ] } }
{ "type": "Feature", "properties": { "name": "House of Daniel", "Source": "photograph", "id": "node\/2641692557" }, "geometry": { "type": "Point", "coordinates": [ -122.1146815, 37.3796745 ] } }
{ "type": "Feature", "properties": { "amenity": "cafe", "name": "Main Street Cafe and Books", "Source": "photograph", "id": "node\/2637444331", "addr:housenumber": "134", "shop": "books" }, "geometry": { "type": "Point", "coordinates": [ -122.1149817, 37.3798089 ] } }
{ "type": "Feature", "properties": { "amenity": "beauty", "name": "Salon 121", "Source": "photograph", "id": "node\/2641692568", "addr:housenumber": "121" }, "geometry": { "type": "Point", "coordinates": [ -122.1146294, 37.3800261 ] } }
{ "type": "Feature", "properties": { "name": "GGK", "Source": "photograph", "id": "node\/2641692546", "addr:housenumber": "123", "shop": "home_design" }, "geometry": { "type": "Point", "coordinates": [ -122.1146294, 37.3799801 ] } }
{ "type": "Feature", "properties": { "name": "Guardian Equity Growth", "Source": "photograph", "id": "node\/2641068336", "office": "financial_services" }, "geometry": { "type": "Point", "coordinates": [ -122.11538, 37.376377 ] } }
{ "type": "Feature", "properties": { "name": "The Abigail Company", "Source": "photograph", "id": "node\/2636302747", "addr:housenumber": "Suite 6" }, "geometry": { "type": "Point", "coordinates": [ -122.1137818, 37.3768778 ] } }
{ "type": "Feature", "properties": { "amenity": "bar", "name": "Fulfillment", "id": "node\/2619982657" }, "geometry": { "type": "Point", "coordinates": [ -122.0991255, 37.3620226 ] } }
{ "type": "Feature", "properties": { "amenity": "place_of_worship", "name": "Maryknoll Smry", "Tiger:MTFCC": "K3544", "denomination": "catholic", "Source": "Tiger2009", "COUNTYFP": "085", "religion": "christian", "id": "node\/548051699", "STATEFP": "06" }, "geometry": { "type": "Point", "coordinates": [ -122.0824105, 37.3336245 ] } }
